[{"OBJECT_NAME":"STARLINK-32612","OBJECT_ID":"2024-210P","EPOCH":"2026-03-09T08:12:59.251680","MEAN_MOTION":15.27601895,"ECCENTRICITY":0.00030436,"INCLINATION":43.0011,"RA_OF_ASC_NODE":182.0561,"ARG_OF_PERICENTER":285.6662,"MEAN_ANOMALY":74.3854,"EPHEMERIS_TYPE":0,"CLASSIFICATION_TYPE":"U","NORAD_CAT_ID":61972,"ELEMENT_SET_NO":999,"REV_AT_EPOCH":7482,"BSTAR":0.0012230411,"MEAN_MOTION_DOT":0.00033572,"MEAN_MOTION_DDOT":0},{"OBJECT_NAME":"COSMOS 2251 DEB","OBJECT_ID":"1993-036DE","EPOCH":"2026-03-09T20:53:28.838688","MEAN_MOTION":15.29467846,"ECCENTRICITY":0.00306247,"INCLINATION":73.7716,"RA_OF_ASC_NODE":223.0836,"ARG_OF_PERICENTER":342.1726,"MEAN_ANOMALY":17.8397,"EPHEMERIS_TYPE":0,"CLASSIFICATION_TYPE":"U","NORAD_CAT_ID":33901,"ELEMENT_SET_NO":999,"REV_AT_EPOCH":90839,"BSTAR":0.0037194515,"MEAN_MOTION_DOT":0.00109321,"MEAN_MOTION_DDOT":0}]
